[{"OBJECT_NAME":"LYRA-1","OBJECT_ID":"2025-009BH","EPOCH":"2026-03-09T17:26:12.542784","MEAN_MOTION":15.16922568,"ECCENTRICITY":0.00098251,"INCLINATION":97.4045,"RA_OF_ASC_NODE":145.5025,"ARG_OF_PERICENTER":171.7868,"MEAN_ANOMALY":188.3529,"EPHEMERIS_TYPE":0,"CLASSIFICATION_TYPE":"U","NORAD_CAT_ID":62664,"ELEMENT_SET_NO":999,"REV_AT_EPOCH":6333,"BSTAR":0.00059700149,"MEAN_MOTION_DOT":0.00011728,"MEAN_MOTION_DDOT":0},{"OBJECT_NAME":"OKEAN-2","OBJECT_ID":"1990-018A","EPOCH":"2026-03-09T23:36:10.183680","MEAN_MOTION":15.15649196,"ECCENTRICITY":0.00049727,"INCLINATION":82.5017,"RA_OF_ASC_NODE":331.5686,"ARG_OF_PERICENTER":303.4328,"MEAN_ANOMALY":67.9927,"EPHEMERIS_TYPE":0,"CLASSIFICATION_TYPE":"U","NORAD_CAT_ID":20510,"ELEMENT_SET_NO":999,"REV_AT_EPOCH":93903,"BSTAR":0.00028442133,"MEAN_MOTION_DOT":5.437e-5,"MEAN_MOTION_DDOT":0}]
